[{"OBJECT_NAME":"STARLINK-30494","OBJECT_ID":"2023-151G","EPOCH":"2026-03-09T08:39:06.366240","MEAN_MOTION":15.28417441,"ECCENTRICITY":0.00011553,"INCLINATION":43.0027,"RA_OF_ASC_NODE":192.4566,"ARG_OF_PERICENTER":241.5536,"MEAN_ANOMALY":118.52,"EPHEMERIS_TYPE":0,"CLASSIFICATION_TYPE":"U","NORAD_CAT_ID":57970,"ELEMENT_SET_NO":999,"REV_AT_EPOCH":13740,"BSTAR":-3.569111e-5,"MEAN_MOTION_DOT":-1.272e-5,"MEAN_MOTION_DDOT":0},{"OBJECT_NAME":"STARLINK-31316","OBJECT_ID":"2024-041S","EPOCH":"2026-03-09T19:46:57.155232","MEAN_MOTION":15.27573257,"ECCENTRICITY":0.00011894,"INCLINATION":42.9979,"RA_OF_ASC_NODE":263.1239,"ARG_OF_PERICENTER":269.8888,"MEAN_ANOMALY":90.1827,"EPHEMERIS_TYPE":0,"CLASSIFICATION_TYPE":"U","NORAD_CAT_ID":59090,"ELEMENT_SET_NO":999,"REV_AT_EPOCH":11477,"BSTAR":-2.0342361e-5,"MEAN_MOTION_DOT":-8.22e-6,"MEAN_MOTION_DDOT":0}]
